satname,norad_id,inclination_deg,eccentricity,mean_motion_rev_per_day,perigee_km,apogee_km,l1,l2
STARLINK-1404,45686,53.1601,0.0002148,15.38974591,447.67378362878844,450.6067819494747,1 45686U 20035AF  26105.68780866  .00035899  00000+0  92246-3 0  9991,2 45686  53.1601 236.6896 0002148 356.8854   3.2137 15.38974591324659
STARLINK-1413,45689,53.1594,0.0001568,15.30745573,472.5122203661931,474.66092087794095,1 45689U 20035AJ  26105.60356823  .00032006  00000+0  10699-2 0  9996,2 45689  53.1594 238.1002 0001568  50.6096 309.5043 15.30745573324545
STARLINK-1417,45693,53.0492,0.0003691,15.14453875,520.0899713257304,525.1841227272453,1 45693U 20035AN  26105.77537976  .00016974  00000+0  92648-3 0  9990,2 45693  53.0492 245.9718 0003691 349.6118  10.4798 15.14453875324516
STARLINK-1420,45695,53.0477,0.000625,15.61402957,379.37756975442335,387.82974557650596,1 45695U 20035AQ  26105.44775745  .00051688  00000+0  59671-3 0  9994,2 45695  53.0477 204.0569 0006250 317.5296  42.5232 15.61402957325085
STARLINK-1422,45696,53.157,0.0001334,15.30933633,472.1115032450107,473.9393933862211,1 45696U 20035AR  26105.87119181  .00028702  00000+0  95556-3 0  9991,2 45696  53.1570 236.8484 0001334  31.3693 328.7388 15.30933633324660
STARLINK-1351,45697,53.048,0.0006494,15.59074907,385.93774024293,394.7286293189227,1 45697U 20035AS  26105.01218938  .00034928  00000+0  44365-3 0  9997,2 45697  53.0480 205.7909 0006494 319.4951  40.5577 15.59074907325027
STARLINK-1400,45700,53.0462,0.0005262,15.57592609,391.0628622514196,398.19051875930654,1 45700U 20035AV  26105.73263725  .00055660  00000+0  74178-3 0  9996,2 45700  53.0462 204.1364 0005262 277.7607  82.2806 15.57592609325105
STARLINK-1403,45701,53.1579,0.001684,15.31805478,458.89260943916815,481.95856823837676,1 45701U 20035AW  26105.65112792  .01326566  00000+0  38750-1 0  9996,2 45701  53.1579 225.0191 0016840 300.2574  59.6760 15.31805478324801
STARLINK-1407,45703,53.0298,0.0003008,15.66395604,367.19839566907467,371.2576104549171,1 45703U 20035AY  26105.38355922  .00026326  00000+0  25329-3 0  9992,2 45703  53.0298 135.9470 0003008 274.8638  85.2033 15.66395604326036
STARLINK-1411,45706,53.039,0.0005821,15.709381,352.2946218824636,360.13475411763284,1 45706U 20035BB  26105.38231227  .00089054  00000+0  69498-3 0  9998,2 45706  53.0390 160.9774 0005821 356.3708   3.7266 15.70938100325677
STARLINK-1423,45710,53.0457,0.0007048,15.60151026,382.4522207727314,391.98866862678096,1 45710U 20035BF  26105.44928552  .00041888  00000+0  50902-3 0  9997,2 45710  53.0457 203.8996 0007048 296.3309  63.6979 15.60151026325075
STARLINK-1433,45711,53.0452,0.0006543,15.62644555,375.5996296164758,384.44335582004805,1 45711U 20035BG  26105.74292439  .00067676  00000+0  74130-3 0  9991,2 45711  53.0452 200.9292 0006543 294.5311  65.5020 15.62644555325142
STARLINK-1434,45712,53.0504,0.0002804,15.30340435,472.87422553552096,476.7173502429696,1 45712U 20035BH  26105.51185340  .00028651  00000+0  97142-3 0  9997,2 45712  53.0504 209.0155 0002804 280.6181  79.4503 15.30340435325028
STARLINK-1465,45731,53.0484,0.0005485,15.56019755,395.4725826352533,402.90731029552535,1 45731U 20038B   26105.13516644  .00062092  00000+0  87574-3 0  9999,2 45731  53.0484  47.5011 0005485  72.1027 288.0581 15.56019755322042
STARLINK-1471,45735,53.0467,0.0001789,15.50976629,412.65825689573285,415.0884381980859,1 45735U 20038F   26105.91616755  .00013913  00000+0  24313-3 0  9993,2 45735  53.0467 323.3867 0001789  62.5940 297.5250 15.50976629323305
STARLINK-1480,45741,53.0515,0.000301,15.58120781,391.0579079519948,395.1341902475542,1 45741U 20038M   26105.53156067  .00028778  00000+0  38058-3 0  9999,2 45741  53.0515  39.5647 0003010 139.1392 220.9845 15.58120781322205
STARLINK-1500,45744,53.0376,0.0003444,15.3679315,453.24598725991655,457.9530649791068,1 45744U 20038Q   26105.05454639  .00014324  00000+0  40245-3 0  9998,2 45744  53.0376  21.9008 0003444  54.3693 305.7629 15.36793150322408
STARLINK-1504,45746,53.0226,7.51e-05,15.55761583,399.4306711720792,400.4487382931311,1 45746U 20038S   26105.91207462  .00018703  00000+0  27273-3 0  9996,2 45746  53.0226 322.2511 0000751  74.7493 285.3600 15.55761583323300
STARLINK-1506,45747,53.0788,0.0003922,15.27212827,481.45737588349493,486.8401528370596,1 45747U 20038T   26105.51735627  .00013753  00000+0  52074-3 0  9999,2 45747  53.0788  31.8912 0003922  36.1997 323.9267 15.27212827322315
STARLINK-1464,45751,53.0499,0.000331,15.4872176,418.21398552310256,422.7146595986378,1 45751U 20038X   26105.92900557  .00042055  00000+0  77576-3 0  9996,2 45751  53.0499  26.9616 0003310  84.4218 275.7166 15.48721760322415
STARLINK-1477,45754,53.0491,0.0003443,15.16321324,514.5960613217212,519.3440320340642,1 45754U 20038AA  26105.23771288  .00014649  00000+0  76101-3 0  9991,2 45754  53.0491  46.5881 0003443  92.4704 267.6683 15.16321324322071
STARLINK-1478,45755,53.0482,0.0003029,15.61612111,380.95194149566305,385.04783822354057,1 45755U 20038AB  26105.89352553  .00070165  00000+0  80006-3 0  9998,2 45755  53.0482  17.0980 0003029  72.0926 288.0417 15.61612111322535
STARLINK-1493,45759,53.0509,0.0004794,15.56760172,393.7928279106336,400.2888684314594,1 45759U 20038AF  26105.95761102  .00057298  00000+0  78738-3 0  9994,2 45759  53.0509  24.7421 0004794 137.4824 222.6559 15.56760172322432
STARLINK-1494,45760,53.0466,0.0004122,15.83002682,319.1928330411547,324.7163885650998,1 45760U 20038AG  26105.92493818  .00098865  00000+0  45148-3 0  9993,2 45760  53.0466 325.2812 0004122 160.0488 200.0696 15.83002682323272
STARLINK-1502,45764,53.0493,0.0006253,15.53207849,403.1242238875466,411.6101754396468,1 45764U 20038AL  26105.95268523  .00101655  00000+0  15760-2 0  9991,2 45764  53.0493  27.2065 0006253 126.3778 233.7809 15.53207849322412
STARLINK-1470,45772,53.0468,0.0003173,15.31371947,469.5446197018982,473.89153773485305,1 45772U 20038AU  26105.85127065  .00026173  00000+0  86080-3 0  9999,2 45772  53.0468   1.3931 0003173 133.5528 226.5736 15.31371947322763
STARLINK-1482,45773,53.16,0.0003427,15.33459663,463.15423380904576,467.8448622990818,1 45773U 20038AV  26105.94036083  .00022551  00000+0  69684-3 0  9996,2 45773  53.1600  17.6103 0003427 130.9346 229.1953 15.33459663322556
STARLINK-1496,45780,53.0499,6.41e-05,15.54821728,402.2362437999682,403.1055433719248,1 45780U 20038BC  26105.94021323  .00054187  00000+0  80073-3 0  9990,2 45780  53.0499 358.6835 0000641 230.4999 129.5954 15.54821728322792
STARLINK-1513,45786,53.16,0.0001666,15.3105615,471.5186083605249,473.801293904643,1 45786U 20038BJ  26105.91894026  .00104261  00000+0  33921-2 0  9999,2 45786  53.1600  18.2155 0001666 104.0901 256.0286 15.31056150322545
STARLINK-1522,46027,53.065,0.0002031,15.10898252,532.0555338835184,534.8630242920844,1 46027U 20055A   26105.88027603  .00011595  00000+0  70468-3 0  9997,2 46027  53.0650 318.6385 0002031 156.8525 203.2558 15.10898252314501
STARLINK-1523,46028,53.1597,0.0001427,15.30193029,474.25790733731355,476.2138599583077,1 46028U 20055B   26105.88232023  .00000790  00000+0  38796-4 0  9996,2 46028  53.1597 313.9443 0001427  94.3451 265.7713 15.30193029314595
STARLINK-1526,46029,53.1582,0.0001314,15.30193156,474.3349712987656,476.13603759293346,1 46029U 20055C   26105.94131206  .00000293  00000+0  22015-4 0  9990,2 46029  53.1582 313.6831 0001314  95.1034 265.0116 15.30193156314590
STARLINK-1555,46032,53.1598,9.65e-05,15.30192066,474.57740825482233,475.9001097763121,1 46032U 20055F   26105.86019042  .00003123  00000+0  11755-3 0  9991,2 46032  53.1598 314.0423 0000965 271.2785  88.8105 15.30192066314581
STARLINK-1556,46033,53.1593,6.89e-05,15.29960958,475.4566535305048,476.4011438113421,1 46033U 20055G   26105.84334941  .00049133  00000+0  16724-2 0  9999,2 46033  53.1593 314.1380 0000689  40.5721 319.5331 15.29960958314553
STARLINK-1557,46034,53.156,0.0001468,15.29306475,476.8778089795014,478.89073682522576,1 46034U 20055H   26105.77275494 -.00014347  00000+0 -48653-3 0  9997,2 46034  53.1560 314.3751 0001468  92.6159 267.5010 15.29306475314544
STARLINK-1558,46035,53.1607,0.0001162,15.30201781,474.4133927869643,476.00611057205333,1 46035U 20055J   26105.91918716  .00000397  00000+0  25542-4 0  9996,2 46035  53.1607 313.7805 0001162  89.3862 270.7272 15.30201781314592
STARLINK-1560,46036,53.1563,0.0001338,15.29350579,476.8351432072677,478.66977922708884,1 46036U 20055K   26105.76950472  .00000943  00000+0  45027-4 0  9992,2 46036  53.1563 314.4284 0001338  97.7485 262.3667 15.29350579314573
STARLINK-1567,46038,53.0854,1.26e-05,15.87994178,307.82286539083,307.9913537023913,1 46038U 20055M   26106.00002315  .00280075  00000+0  98036-3 0  9999,2 46038  53.0854 306.4051 0000126 245.7575 349.7303 15.87994178  1651
STARLINK-1569,46039,53.1579,0.000127,15.3019475,474.3603673142061,476.10112272144033,1 46039U 20055N   26105.85703035  .00001862  00000+0  74990-4 0  9998,2 46039  53.1579 314.0646 0001270  89.6171 270.4976 15.30194750314570
STARLINK-1582,46043,53.159,0.0001165,15.31676934,470.01085245385457,471.60665681468527,1 46043U 20055S   26106.00002315  .00053460  00000+0  17234-2 0  9991,2 46043  53.1590 313.3712 0001165  96.8766 308.9973 15.31676934  5826
STARLINK-1591,46045,53.16,0.0001006,15.30192282,474.54866453652903,475.9275636094799,1 46045U 20055U   26105.95500220 -.00001945  00000+0 -53567-4 0  9998,2 46045  53.1600 313.6116 0001006 104.7384 255.3728 15.30192282314576
STARLINK-1524,46047,53.1604,0.0001374,15.30192895,474.29463026153644,476.17793723991144,1 46047U 20055W   26105.94917080  .00000599  00000+0  32363-4 0  9998,2 46047  53.1604 300.7720 0001374  79.8566 280.2590 15.30192895314778
STARLINK-1527,46048,53.1589,0.0001173,15.30197514,474.41859310883683,476.02639124570214,1 46048U 20055X   26105.69424334  .00000468  00000+0  27916-4 0  9999,2 46048  53.1589 302.0548 0001173  79.0068 281.1065 15.30197514314714
